CCSDS_OMM_VERS = 2.0
CREATION_DATE  = 
ORIGINATOR     = 

OBJECT_NAME    = COSMOS 1892
OBJECT_ID      = 1987-088A
CENTER_NAME    = EARTH
REF_FRAME      = TEME
TIME_SYSTEM    = UTC
MEAN_ELEMENT_THEORY = SGP/SGP4

EPOCH          = 2025-11-13T18:24:23.234112
MEAN_MOTION    = 16.00341691
ECCENTRICITY   = .0006262
INCLINATION    = 82.4660
RA_OF_ASC_NODE = 76.4358
ARG_OF_PERICENTER = 280.7366
MEAN_ANOMALY   = 79.3207

EPHEMERIS_TYPE = 0
CLASSIFICATION_TYPE = U
NORAD_CAT_ID   = 18421
ELEMENT_SET_NO = 999
REV_AT_EPOCH   = 8667
BSTAR          = .92659E-3
MEAN_MOTION_DOT = .47931E-2
MEAN_MOTION_DDOT = .98273E-4

CCSDS_OMM_VERS = 2.0
CREATION_DATE  = 
ORIGINATOR     = 

OBJECT_NAME    = SL-14 R/B
OBJECT_ID      = 1988-001B
CENTER_NAME    = EARTH
REF_FRAME      = TEME
TIME_SYSTEM    = UTC
MEAN_ELEMENT_THEORY = SGP/SGP4

EPOCH          = 2025-11-13T11:24:37.182240
MEAN_MOTION    = 14.85377985
ECCENTRICITY   = .001648
INCLINATION    = 82.5107
RA_OF_ASC_NODE = 304.6774
ARG_OF_PERICENTER = 262.1740
MEAN_ANOMALY   = 97.7606

EPHEMERIS_TYPE = 0
CLASSIFICATION_TYPE = U
NORAD_CAT_ID   = 18749
ELEMENT_SET_NO = 999
REV_AT_EPOCH   = 2477
BSTAR          = .13558E-3
MEAN_MOTION_DOT = .1193E-4
MEAN_MOTION_DDOT = 0

CCSDS_OMM_VERS = 2.0
CREATION_DATE  = 
ORIGINATOR     = 

OBJECT_NAME    = COSMOS 1933
OBJECT_ID      = 1988-020A
CENTER_NAME    = EARTH
REF_FRAME      = TEME
TIME_SYSTEM    = UTC
MEAN_ELEMENT_THEORY = SGP/SGP4

EPOCH          = 2025-11-13T11:09:20.344320
MEAN_MOTION    = 15.16788227
ECCENTRICITY   = .000328
INCLINATION    = 82.5163
RA_OF_ASC_NODE = 5.7965
ARG_OF_PERICENTER = 229.0970
MEAN_ANOMALY   = 130.9979

EPHEMERIS_TYPE = 0
CLASSIFICATION_TYPE = U
NORAD_CAT_ID   = 18958
ELEMENT_SET_NO = 999
REV_AT_EPOCH   = 3260
BSTAR          = .51789E-3
MEAN_MOTION_DOT = .10202E-3
MEAN_MOTION_DDOT = 0

CCSDS_OMM_VERS = 2.0
CREATION_DATE  = 
ORIGINATOR     = 

OBJECT_NAME    = SL-3 R/B
OBJECT_ID      = 1988-032B
CENTER_NAME    = EARTH
REF_FRAME      = TEME
TIME_SYSTEM    = UTC
MEAN_ELEMENT_THEORY = SGP/SGP4

EPOCH          = 2025-11-13T20:49:22.502784
MEAN_MOTION    = 15.18326056
ECCENTRICITY   = .0024838
INCLINATION    = 97.5056
RA_OF_ASC_NODE = 296.8017
ARG_OF_PERICENTER = 278.5809
MEAN_ANOMALY   = 81.2611

EPHEMERIS_TYPE = 0
CLASSIFICATION_TYPE = U
NORAD_CAT_ID   = 19046
ELEMENT_SET_NO = 999
REV_AT_EPOCH   = 3452
BSTAR          = .54941E-3
MEAN_MOTION_DOT = .11305E-3
MEAN_MOTION_DDOT = 0

CCSDS_OMM_VERS = 2.0
CREATION_DATE  = 
ORIGINATOR     = 

OBJECT_NAME    = SL-16 R/B
OBJECT_ID      = 1988-039B
CENTER_NAME    = EARTH
REF_FRAME      = TEME
TIME_SYSTEM    = UTC
MEAN_ELEMENT_THEORY = SGP/SGP4

EPOCH          = 2025-11-13T10:24:56.507040
MEAN_MOTION    = 14.19589684
ECCENTRICITY   = .0021093
INCLINATION    = 71.0143
RA_OF_ASC_NODE = 314.3640
ARG_OF_PERICENTER = 164.5555
MEAN_ANOMALY   = 195.6218

EPHEMERIS_TYPE = 0
CLASSIFICATION_TYPE = U
NORAD_CAT_ID   = 19120
ELEMENT_SET_NO = 999
REV_AT_EPOCH   = 94188
BSTAR          = .42411E-4
MEAN_MOTION_DOT = .42E-6
MEAN_MOTION_DDOT = 0

CCSDS_OMM_VERS = 2.0
CREATION_DATE  = 
ORIGINATOR     = 

OBJECT_NAME    = COSMOS 1953
OBJECT_ID      = 1988-050A
CENTER_NAME    = EARTH
REF_FRAME      = TEME
TIME_SYSTEM    = UTC
MEAN_ELEMENT_THEORY = SGP/SGP4

EPOCH          = 2025-11-13T20:46:12.789120
MEAN_MOTION    = 15.26478941
ECCENTRICITY   = .0012297
INCLINATION    = 82.5069
RA_OF_ASC_NODE = 274.5446
ARG_OF_PERICENTER = 161.4792
MEAN_ANOMALY   = 198.6897

EPHEMERIS_TYPE = 0
CLASSIFICATION_TYPE = U
NORAD_CAT_ID   = 19210
ELEMENT_SET_NO = 999
REV_AT_EPOCH   = 2010
BSTAR          = .42021E-3
MEAN_MOTION_DOT = .11018E-3
MEAN_MOTION_DDOT = 0

CCSDS_OMM_VERS = 2.0
CREATION_DATE  = 
ORIGINATOR     = 

OBJECT_NAME    = SL-8 R/B
OBJECT_ID      = 1988-053B
CENTER_NAME    = EARTH
REF_FRAME      = TEME
TIME_SYSTEM    = UTC
MEAN_ELEMENT_THEORY = SGP/SGP4

EPOCH          = 2025-11-13T11:41:27.027168
MEAN_MOTION    = 14.38834658
ECCENTRICITY   = .0020029
INCLINATION    = 74.0471
RA_OF_ASC_NODE = 326.6355
ARG_OF_PERICENTER = 180.0922
MEAN_ANOMALY   = 291.2639

EPHEMERIS_TYPE = 0
CLASSIFICATION_TYPE = U
NORAD_CAT_ID   = 19257
ELEMENT_SET_NO = 999
REV_AT_EPOCH   = 95988
BSTAR          = .23353E-3
MEAN_MOTION_DOT = .694E-5
MEAN_MOTION_DDOT = 0

CCSDS_OMM_VERS = 2.0
CREATION_DATE  = 
ORIGINATOR     = 

OBJECT_NAME    = COSMOS 1975
OBJECT_ID      = 1988-093A
CENTER_NAME    = EARTH
REF_FRAME      = TEME
TIME_SYSTEM    = UTC
MEAN_ELEMENT_THEORY = SGP/SGP4

EPOCH          = 2025-11-13T17:38:28.721760
MEAN_MOTION    = 15.25835920
ECCENTRICITY   = .0010007
INCLINATION    = 82.5214
RA_OF_ASC_NODE = 233.8468
ARG_OF_PERICENTER = 211.2942
MEAN_ANOMALY   = 148.7701

EPHEMERIS_TYPE = 0
CLASSIFICATION_TYPE = U
NORAD_CAT_ID   = 19573
ELEMENT_SET_NO = 999
REV_AT_EPOCH   = 171
BSTAR          = .75702E-3
MEAN_MOTION_DOT = .19447E-3
MEAN_MOTION_DDOT = 0

CCSDS_OMM_VERS = 2.0
CREATION_DATE  = 
ORIGINATOR     = 

OBJECT_NAME    = SL-14 R/B
OBJECT_ID      = 1988-093B
CENTER_NAME    = EARTH
REF_FRAME      = TEME
TIME_SYSTEM    = UTC
MEAN_ELEMENT_THEORY = SGP/SGP4

EPOCH          = 2025-11-13T07:02:18.707712
MEAN_MOTION    = 14.85505269
ECCENTRICITY   = .0022177
INCLINATION    = 82.5296
RA_OF_ASC_NODE = 151.3016
ARG_OF_PERICENTER = 65.0651
MEAN_ANOMALY   = 107.7865

EPHEMERIS_TYPE = 0
CLASSIFICATION_TYPE = U
NORAD_CAT_ID   = 19574
ELEMENT_SET_NO = 999
REV_AT_EPOCH   = 98375
BSTAR          = .11666E-3
MEAN_MOTION_DOT = .1035E-4
MEAN_MOTION_DDOT = 0

CCSDS_OMM_VERS = 2.0
CREATION_DATE  = 
ORIGINATOR     = 

OBJECT_NAME    = SL-16 R/B
OBJECT_ID      = 1988-102B
CENTER_NAME    = EARTH
REF_FRAME      = TEME
TIME_SYSTEM    = UTC
MEAN_ELEMENT_THEORY = SGP/SGP4

EPOCH          = 2025-11-13T15:20:09.676032
MEAN_MOTION    = 14.16130270
ECCENTRICITY   = .0014725
INCLINATION    = 71.0011
RA_OF_ASC_NODE = 35.6728
ARG_OF_PERICENTER = 196.9720
MEAN_ANOMALY   = 163.0912

EPHEMERIS_TYPE = 0
CLASSIFICATION_TYPE = U
NORAD_CAT_ID   = 19650
ELEMENT_SET_NO = 999
REV_AT_EPOCH   = 91046
BSTAR          = .32393E-5
MEAN_MOTION_DOT = -.41E-6
MEAN_MOTION_DDOT = 0

CCSDS_OMM_VERS = 2.0
CREATION_DATE  = 
ORIGINATOR     = 

OBJECT_NAME    = INTERCOSMOS 24
OBJECT_ID      = 1989-080A
CENTER_NAME    = EARTH
REF_FRAME      = TEME
TIME_SYSTEM    = UTC
MEAN_ELEMENT_THEORY = SGP/SGP4

EPOCH          = 2025-11-13T14:02:29.344704
MEAN_MOTION    = 12.59374902
ECCENTRICITY   = .1188107
INCLINATION    = 82.6069
RA_OF_ASC_NODE = 179.9104
ARG_OF_PERICENTER = 202.1511
MEAN_ANOMALY   = 152.3894

EPHEMERIS_TYPE = 0
CLASSIFICATION_TYPE = U
NORAD_CAT_ID   = 20261
ELEMENT_SET_NO = 999
REV_AT_EPOCH   = 65218
BSTAR          = .39557E-3
MEAN_MOTION_DOT = .1342E-4
MEAN_MOTION_DDOT = 0

CCSDS_OMM_VERS = 2.0
CREATION_DATE  = 
ORIGINATOR     = 

OBJECT_NAME    = SL-14 R/B
OBJECT_ID      = 1989-080C
CENTER_NAME    = EARTH
REF_FRAME      = TEME
TIME_SYSTEM    = UTC
MEAN_ELEMENT_THEORY = SGP/SGP4

EPOCH          = 2025-11-13T07:13:00.067008
MEAN_MOTION    = 12.50381511
ECCENTRICITY   = .1231253
INCLINATION    = 82.5933
RA_OF_ASC_NODE = 247.9120
ARG_OF_PERICENTER = 90.8425
MEAN_ANOMALY   = 283.3580

EPHEMERIS_TYPE = 0
CLASSIFICATION_TYPE = U
NORAD_CAT_ID   = 20262
ELEMENT_SET_NO = 999
REV_AT_EPOCH   = 64560
BSTAR          = .18077E-3
MEAN_MOTION_DOT = .631E-5
MEAN_MOTION_DDOT = 0

